NORAD_CAT_ID,OBJECT_NAME,OBJECT_TYPE,EPOCH,MEAN_MOTION,ECCENTRICITY,INCLINATION,RA_OF_ASC_NODE,ARG_OF_PERICENTER,MEAN_ANOMALY,BSTAR,MEAN_MOTION_DOT,MEAN_MOTION_DDOT,TLE_LINE0,TLE_LINE1,TLE_LINE2,SEMIMAJOR_AXIS,PERIOD,APOGEE,PERIGEE,DECAYED
52112.0,STARLINK-3734,PAYLOAD,2024-06-29 14:28:04,15.08828896,0.0001362,53.2184,333.8244,86.0013,274.1135,0.0001559,2.193e-05,0.0,0 STARLINK-3734,1 52112U 22029AA  24181.60282443  .00002193  00000-0  15590-3 0  9999,2 52112  53.2184 333.8244 0001362  86.0013 274.1135 15.08828896127472,6917.914,95.438,540.722,538.837,0.0
52112.0,STARLINK-3734,PAYLOAD,2024-06-29 19:14:12,15.08842008,0.0001188,53.2175,332.931,79.0046,281.108,0.00012839,1.756e-05,0.0,0 STARLINK-3734,1 52112U 22029AA  24181.80153768  .00001756  00000-0  12839-3 0  9995,2 52112  53.2175 332.9310 0001188  79.0046 281.1080 15.08842008127502,6917.874,95.437,540.561,538.917,0.0
52112.0,STARLINK-3734,PAYLOAD,2024-06-30 03:11:07,15.08850651,0.0001279,53.2183,331.444,79.4503,280.6633,0.00016164,2.286e-05,0.0,0 STARLINK-3734,1 52112U 22029AA  24182.13273068  .00002286  00000-0  16164-3 0  9992,2 52112  53.2183 331.4440 0001279  79.4503 280.6633 15.08850651127558,6917.848,95.437,540.598,538.828,0.0
52112.0,STARLINK-3734,PAYLOAD,2024-06-30 14:18:51,15.0882892,0.0001548,53.2162,329.3609,84.7117,275.4052,-6.5493e-05,-1.33e-05,0.0,0 STARLINK-3734,1 52112U 22029AA  24182.59642437 -.00001330  00000-0 -65493-4 0  9993,2 52112  53.2162 329.3609 0001548  84.7117 275.4052 15.08828920127626,6917.914,95.438,540.85,538.708,0.0
52112.0,STARLINK-3734,PAYLOAD,2024-06-30 17:29:37,15.08836605,0.0001252,53.2161,328.7685,90.0874,270.0262,-0.00015657,-2.779e-05,0.0,0 STARLINK-3734,1 52112U 22029AA  24182.72890057 -.00002779  00000-0 -15657-3 0  9995,2 52112  53.2161 328.7685 0001252  90.0874 270.0262 15.08836605127649,6917.891,95.438,540.622,538.89,0.0
52112.0,STARLINK-3734,PAYLOAD,2024-07-01 03:01:55,15.08849378,0.0001325,53.2169,326.9843,86.0595,274.0549,5.5875e-05,6.02e-06,0.0,0 STARLINK-3734,1 52112U 22029AA  24183.12633419  .00000602  00000-0  55875-4 0  9995,2 52112  53.2169 326.9843 0001325  86.0595 274.0549 15.08849378127709,6917.852,95.437,540.633,538.8,0.0
52112.0,STARLINK-3734,PAYLOAD,2024-07-01 09:23:28,15.08831574,0.0001449,53.2162,325.7925,83.846,276.2697,-0.00021896,-3.77e-05,0.0,0 STARLINK-3734,1 52112U 22029AA  24183.39130356 -.00003770  00000-0 -21896-3 0  9992,2 52112  53.2162 325.7925 0001449  83.8460 276.2697 15.08831574127744,6917.906,95.438,540.774,538.769,0.0
52112.0,STARLINK-3734,PAYLOAD,2024-07-01 14:09:38,15.08832081,0.0001905,53.2161,324.9018,83.3425,276.7784,7.5743e-05,9.17e-06,0.0,0 STARLINK-3734,1 52112U 22029AA  24183.59002694  .00000917  00000-0  75743-4 0  9996,2 52112  53.2161 324.9018 0001905  83.3425 276.7784 15.08832081127779,6917.905,95.438,541.087,538.452,0.0
52112.0,STARLINK-3734,PAYLOAD,2024-07-01 15:45:01,15.08829559,0.0001217,53.2164,324.6054,82.698,277.415,3.3074e-05,2.38e-06,0.0,0 STARLINK-3734,1 52112U 22029AA  24183.65626702  .00000238  00000-0  33074-4 0  9992,2 52112  53.2164 324.6054 0001217  82.6980 277.4150 15.08829559127785,6917.912,95.438,540.619,538.935,0.0
52112.0,STARLINK-3734,PAYLOAD,2024-07-02 02:52:42,15.08845106,0.0001325,53.2176,322.5217,96.1625,263.9518,0.00014835,2.074e-05,0.0,0 STARLINK-3734,1 52112U 22029AA  24184.11993925  .00002074  00000-0  14835-3 0  9991,2 52112  53.2176 322.5217 0001325  96.1625 263.9518 15.08845106127854,6917.865,95.437,540.646,538.813,0.0
52112.0,STARLINK-3734,PAYLOAD,2024-07-02 12:25:02,15.08830078,0.0001303,53.2168,320.7397,95.0551,265.059,0.00017954,2.57e-05,0.0,0 STARLINK-3734,1 52112U 22029AA  24184.51739054  .00002570  00000-0  17954-3 0  9992,2 52112  53.2168 320.7397 0001303  95.0551 265.0590 15.08830078127918,6917.911,95.438,540.677,538.874,0.0
52112.0,STARLINK-3734,PAYLOAD,2024-07-02 14:00:25,15.08833718,0.0001355,53.2152,320.441,98.721,261.3936,0.00017397,2.481e-05,0.0,0 STARLINK-3734,1 52112U 22029AA  24184.58362829  .00002481  00000-0  17397-3 0  9993,2 52112  53.2152 320.4410 0001355  98.7210 261.3936 15.08833718127921,6917.9,95.438,540.702,538.827,0.0
52112.0,STARLINK-3734,PAYLOAD,2024-07-02 15:35:48,15.08835793,0.0001433,53.2158,320.1437,98.7356,261.3799,0.0001974,2.855e-05,0.0,0 STARLINK-3734,1 52112U 22029AA  24184.64986902  .00002855  00000-0  19740-3 0  9993,2 52112  53.2158 320.1437 0001433  98.7356 261.3799 15.08835793127934,6917.893,95.438,540.75,538.767,0.0
52112.0,STARLINK-3734,PAYLOAD,2024-07-03 12:15:48,15.08856969,0.0001224,53.2163,316.2786,99.9533,260.1597,0.00051486,7.919e-05,0.0,0 STARLINK-3734,1 52112U 22029AA  24185.51097926  .00007919  00000-0  51486-3 0  9998,2 52112  53.2163 316.2786 0001224  99.9533 260.1597 15.08856969128067,6917.829,95.436,540.54,538.847,0.0
52112.0,STARLINK-3734,PAYLOAD,2024-07-03 15:26:34,15.08866591,0.000116,53.217,315.6853,94.6452,265.4672,0.00091952,0.00014387,0.0,0 STARLINK-3734,1 52112U 22029AA  24185.64345836  .00014387  00000-0  91952-3 0  9997,2 52112  53.2170 315.6853 0001160  94.6452 265.4672 15.08866591128080,6917.799,95.436,540.467,538.862,0.0
52112.0,STARLINK-3734,PAYLOAD,2024-07-04 12:06:35,15.08826875,9.94e-05,53.2169,311.819,99.1033,261.0072,-0.00081135,-0.00013172,0.0,0 STARLINK-3734,1 52112U 22029AA  24186.50457565 -.00013172  00000-0 -81135-3 0  9991,2 52112  53.2169 311.8190 0000994  99.1033 261.0072 15.08826875128211,6917.921,95.438,540.473,539.098,0.0
52112.0,STARLINK-3734,PAYLOAD,2024-07-04 15:17:21,15.08829327,0.0001116,53.2172,311.2243,110.9392,249.172,-0.0004286,-7.1e-05,0.0,0 STARLINK-3734,1 52112U 22029AA  24186.63705611 -.00007100  00000-0 -42860-3 0  9999,2 52112  53.2172 311.2243 0001116 110.9392 249.1720 15.08829327128239,6917.913,95.438,540.55,539.006,0.0
52112.0,STARLINK-3734,PAYLOAD,2024-07-05 15:08:09,15.08841945,0.0001031,53.2169,306.7635,113.1538,246.9563,0.0009183,0.00014358,0.0,0 STARLINK-3734,1 52112U 22029AA  24187.63066675  .00014358  00000-0  91830-3 0  9992,2 52112  53.2169 306.7635 0001031 113.1538 246.9563 15.08841945128388,6917.874,95.437,540.453,539.026,0.0
52112.0,STARLINK-3734,PAYLOAD,2024-07-06 00:40:27,15.08864324,9.61e-05,53.2172,304.9785,107.4588,252.6509,0.0012192,0.00019182,0.0,0 STARLINK-3734,1 52112U 22029AA  24188.02810087  .00019182  00000-0  12192-2 0  9993,2 52112  53.2172 304.9785 0000961 107.4588 252.6509 15.08864324128447,6917.806,95.436,540.336,539.006,0.0
52112.0,STARLINK-3734,PAYLOAD,2024-07-06 11:48:10,15.08839218,0.0001243,53.2175,302.8989,101.4505,258.6627,7.857e-05,9.63e-06,0.0,0 STARLINK-3734,1 52112U 22029AA  24188.49178563  .00000963  00000-0  78570-4 0  9991,2 52112  53.2175 302.8989 0001243 101.4505 258.6627 15.08839218128519,6917.883,95.438,540.608,538.888,0.0
52112.0,STARLINK-3734,PAYLOAD,2024-07-06 14:58:56,15.08841158,0.0001205,53.218,302.3051,102.4119,257.7008,0.00020815,3.026e-05,0.0,0 STARLINK-3734,1 52112U 22029AA  24188.62426549  .00003026  00000-0  20815-3 0  9997,2 52112  53.2180 302.3051 0001205 102.4119 257.7008 15.08841158128531,6917.877,95.437,540.575,538.908,0.0
52112.0,STARLINK-3734,PAYLOAD,2024-07-06 16:34:19,15.0884358,0.0001245,53.218,302.0074,98.3385,261.7749,0.00034461,5.201e-05,0.0,0 STARLINK-3734,1 52112U 22029AA  24188.69050544  .00005201  00000-0  34461-3 0  9991,2 52112  53.2180 302.0074 0001245  98.3385 261.7749 15.08843580128544,6917.869,95.437,540.596,538.873,0.0
52112.0,STARLINK-3734,PAYLOAD,2024-07-07 00:31:15,15.0885414,0.0001162,53.2175,300.5199,78.035,282.0772,0.00093076,0.00014562,0.0,0 STARLINK-3734,1 52112U 22029AA  24189.02170383  .00014562  00000-0  93076-3 0  9990,2 52112  53.2175 300.5199 0001162  78.0350 282.0772 15.08854140128595,6917.837,95.437,540.506,538.898,0.0
52112.0,STARLINK-3734,PAYLOAD,2024-07-07 06:52:48,15.08857151,0.0002824,53.2176,299.3304,78.2261,281.9048,0.0011603,0.00018236,0.0,0 STARLINK-3734,1 52112U 22029AA  24189.28666912  .00018236  00000-0  11603-2 0  9993,2 52112  53.2176 299.3304 0002824  78.2261 281.9048 15.08857151128632,6917.828,95.436,541.647,537.739,0.0
52112.0,STARLINK-3734,PAYLOAD,2024-07-08 13:05:08,15.08842227,0.0001105,53.2163,293.6806,79.5288,280.5828,0.00054327,8.369e-05,0.0,0 STARLINK-3734,1 52112U 22029AA  24190.54523262  .00008369  00000-0  54327-3 0  9991,2 52112  53.2163 293.6806 0001105  79.5288 280.5828 15.08842227128826,6917.874,95.437,540.503,538.974,0.0
52112.0,STARLINK-3734,PAYLOAD,2024-07-09 12:55:55,15.08841585,0.0001178,53.2144,289.2192,83.4818,276.6308,0.00021175,3.084e-05,0.0,0 STARLINK-3734,1 52112U 22029AA  24191.53883293  .00003084  00000-0  21175-3 0  9998,2 52112  53.2144 289.2192 0001178  83.4818 276.6308 15.08841585128978,6917.876,95.437,540.555,538.926,0.0
52112.0,STARLINK-3734,PAYLOAD,2024-07-10 12:46:42,15.08838141,0.0001245,53.2167,284.7574,95.7621,264.3513,4.8421e-05,4.83e-06,0.0,0 STARLINK-3734,1 52112U 22029AA  24192.53243471  .00000483  00000-0  48421-4 0  9991,2 52112  53.2167 284.7574 0001245  95.7621 264.3513 15.08838141129124,6917.886,95.438,540.612,538.89,0.0
52112.0,STARLINK-3734,PAYLOAD,2024-07-10 15:57:28,15.08835139,0.0001655,53.217,284.1618,103.7894,256.3282,-5.9403e-06,-3.83e-06,0.0,0 STARLINK-3734,1 52112U 22029AA  24192.66491652 -.00000383  00000-0 -59403-5 0  9995,2 52112  53.2170 284.1618 0001655 103.7894 256.3282 15.08835139129148,6917.895,95.438,540.905,538.615,0.0
52112.0,STARLINK-3734,PAYLOAD,2024-07-11 12:37:29,15.08844885,0.0001247,53.2169,280.2969,96.4195,263.6939,0.00019911,2.883e-05,0.0,0 STARLINK-3734,1 52112U 22029AA  24193.52603360  .00002883  00000-0  19911-3 0  9995,2 52112  53.2169 280.2969 0001247  96.4195 263.6939 15.08844885129273,6917.865,95.437,540.593,538.868,0.0
52112.0,STARLINK-3734,PAYLOAD,2024-07-11 15:48:15,15.08846733,0.0001248,53.2169,279.702,97.0856,263.0278,0.00023741,3.493e-05,0.0,0 STARLINK-3734,1 52112U 22029AA  24193.65851300  .00003493  00000-0  23741-3 0  9992,2 52112  53.2169 279.7020 0001248  97.0856 263.0278 15.08846733129292,6917.86,95.437,540.588,538.861,0.0
